GLOBALSTAR M067         
1 32263U 07048A   25255.97487240 -.00000058  00000+0  29230-3 0  9997
2 32263  51.9719 139.0575 0001109 129.4348 244.2123 12.40677785820388
GLOBALSTAR M070         
1 32264U 07048B   25255.94060619 -.00000092  00000+0  64217-4 0  9995
2 32264  51.9733 221.1693 0000439  34.2268   0.4682 12.62322413824754
GLOBALSTAR M066         
1 32265U 07048C   25255.96547900 -.00000055  00000+0  33840-3 0  9997
2 32265  51.9579 133.7319 0004444 171.3379 202.2052 12.30376986826105
GLOBALSTAR M068         
1 32266U 07048D   25255.67922332 -.00000086  00000+0  10106-3 0  9996
2 32266  51.9901  35.5484 0000816  17.6068 356.1337 12.62828177828615
GLOBALSTAR M079         
1 37188U 10054A   25255.90367869 -.00000091  00000+0  69592-4 0  9999
2 37188  52.0019 232.7637 0000549  91.3688 288.3706 12.62266625687530
GLOBALSTAR M074         
1 37189U 10054B   25255.64685152 -.00000100  00000+0  20391-4 0  9994
2 37189  51.9996 232.8557 0000224  88.0935  82.9972 12.62271317688104
GLOBALSTAR M076         
1 37190U 10054C   25255.96002991 -.00000105  00000+0 -90975-5 0  9997
2 37190  52.0019 232.0814 0000397 114.1686 280.6964 12.62265189687867
GLOBALSTAR M077         
1 37191U 10054D   25255.78221666 -.00000083  00000+0  11538-3 0  9990
2 37191  52.0064 189.4881 0000510  64.2222 312.5681 12.62323238688216
